[{"OBJECT_NAME":"STARLINK-30957","OBJECT_ID":"2023-183S","EPOCH":"2026-03-08T23:56:13.975872","MEAN_MOTION":15.26747443,"ECCENTRICITY":0.00015318,"INCLINATION":43.0053,"RA_OF_ASC_NODE":45.0847,"ARG_OF_PERICENTER":274.814,"MEAN_ANOMALY":85.2537,"EPHEMERIS_TYPE":0,"CLASSIFICATION_TYPE":"U","NORAD_CAT_ID":58453,"ELEMENT_SET_NO":999,"REV_AT_EPOCH":12663,"BSTAR":0.00010846867,"MEAN_MOTION_DOT":2.651e-5,"MEAN_MOTION_DDOT":0},{"OBJECT_NAME":"TOMORROW-S4","OBJECT_ID":"2024-247K","EPOCH":"2026-03-09T12:47:35.836224","MEAN_MOTION":15.27717249,"ECCENTRICITY":0.00044343,"INCLINATION":44.9818,"RA_OF_ASC_NODE":117.9996,"ARG_OF_PERICENTER":210.4078,"MEAN_ANOMALY":149.6548,"EPHEMERIS_TYPE":0,"CLASSIFICATION_TYPE":"U","NORAD_CAT_ID":62386,"ELEMENT_SET_NO":999,"REV_AT_EPOCH":6770,"BSTAR":0.00046927249,"MEAN_MOTION_DOT":0.00012677,"MEAN_MOTION_DDOT":0}]
